{"type": "FeatureCollection", "features": [ {"type": "Feature", "properties": {"norad_id": 66479, "name": "STARLINK-35581", "group": "last-30-days", "lat": 29.90627270592513, "lon": -101.23550973352538, "alt_km": 403.60492546241494, "timestamp": "2025-12-04T21:36:14.652046+00:00", "meta": {"OBJECT_NAME": "STARLINK-35581", "OBJECT_ID": "2025-262Z", "EPOCH": "2025-12-04T14:00:01.000224", "MEAN_MOTION": 15.54717721, "ECCENTRICITY": 0.00012313, "INCLINATION": 42.9992, "RA_OF_ASC_NODE": 118.7435, "ARG_OF_PERICENTER": 279.605, "MEAN_ANOMALY": 238.8283, "EPHEMERIS_TYPE": 0, "CLASSIFICATION_TYPE": "U", "NORAD_CAT_ID": 66479, "ELEMENT_SET_NO": 999, "REV_AT_EPOCH": 432, "BSTAR": -0.036164047, "MEAN_MOTION_DOT": -0.02180738, "MEAN_MOTION_DDOT": 0}, "tle": {"line1": "1 66479U 25262Z   25338.58334491 -.02180738  00000+0 -36164-1 0  9998", "line2": "2 66479  42.9992 118.7435 0001231 279.6050 238.8283 15.54717721  4327"}}, "geometry": {"type": "Point", "coordinates": [-101.23550973352538, 29.90627270592513]}}, {"type": "Feature", "properties": {"norad_id": 66480, "name": "STARLINK-35670", "group": "last-30-days", "lat": 26.707329565632516, "lon": -95.81178100931912, "alt_km": 404.1063976806272, "timestamp": "2025-12-04T21:36:14.652059+00:00", "meta": {"OBJECT_NAME": "STARLINK-35670", "OBJECT_ID": "2025-262AA", "EPOCH": "2025-12-04T14:00:01.000224", "MEAN_MOTION": 15.54716959, "ECCENTRICITY": 0.00012368, "INCLINATION": 42.9995, "RA_OF_ASC_NODE": 118.729, "ARG_OF_PERICENTER": 282.4949, "MEAN_ANOMALY": 241.6907, "EPHEMERIS_TYPE": 0, "CLASSIFICATION_TYPE": "U", "NORAD_CAT_ID": 66480, "ELEMENT_SET_NO": 999, "REV_AT_EPOCH": 432, "BSTAR": -0.036158057, "MEAN_MOTION_DOT": -0.02180368, "MEAN_MOTION_DDOT": 0}, "tle": {"line1": "1 66480U 25262AA  25338.58334491 -.02180368  00000+0 -36158-1 0  9992", "line2": "2 66480  42.9995 118.7290 0001236 282.4949 241.6907 15.54716959  4322"}}, "geometry": {"type": "Point", "coordinates": [-95.81178100931912, 26.707329565632516]}}, {"type": "Feature", "properties": {"norad_id": 66481, "name": "STARLINK-35698", "group": "last-30-days", "lat": 25.594877893966746, "lon": -94.07364037536976, "alt_km": 404.1554779729795, "timestamp": "2025-12-04T21:36:14.652071+00:00", "meta": {"OBJECT_NAME": "STARLINK-35698", "OBJECT_ID": "2025-262AB", "EPOCH": "2025-12-04T14:00:01.000224", "MEAN_MOTION": 15.54718116, "ECCENTRICITY": 0.0001118, "INCLINATION": 42.9992, "RA_OF_ASC_NODE": 118.7239, "ARG_OF_PERICENTER": 277.762, "MEAN_ANOMALY": 248.3431, "EPHEMERIS_TYPE": 0, "CLASSIFICATION_TYPE": "U", "NORAD_CAT_ID": 66481, "ELEMENT_SET_NO": 999, "REV_AT_EPOCH": 432, "BSTAR": -0.036239526, "MEAN_MOTION_DOT": -0.02184712, "MEAN_MOTION_DDOT": 0}, "tle": {"line1": "1 66481U 25262AB  25338.58334491 -.02184712  00000+0 -36240-1 0  9992", "line2": "2 66481  42.9992 118.7239 0001118 277.7620 248.3431 15.54718116  4328"}}, "geometry": {"type": "Point", "coordinates": [-94.07364037536976, 25.594877893966746]}}, {"type": "Feature", "properties": {"norad_id": 66482, "name": "STARLINK-35648", "group": "last-30-days", "lat": 24.463379100500543, "lon": -92.36904476926858, "alt_km": 404.4203978994383, "timestamp": "2025-12-04T21:36:14.652081+00:00", "meta": {"OBJECT_NAME": "STARLINK-35648", "OBJECT_ID": "2025-262AC", "EPOCH": "2025-12-04T14:00:01.000224", "MEAN_MOTION": 15.54717415, "ECCENTRICITY": 0.0001157, "INCLINATION": 42.9994, "RA_OF_ASC_NODE": 118.7189, "ARG_OF_PERICENTER": 284.969, "MEAN_ANOMALY": 243.0511, "EPHEMERIS_TYPE": 0, "CLASSIFICATION_TYPE": "U", "NORAD_CAT_ID": 66482, "ELEMENT_SET_NO": 999, "REV_AT_EPOCH": 417, "BSTAR": -0.036196656, "MEAN_MOTION_DOT": -0.02182403, "MEAN_MOTION_DDOT": 0}, "tle": {"line1": "1 66482U 25262AC  25338.58334491 -.02182403  00000+0 -36197-1 0  9999", "line2": "2 66482  42.9994 118.7189 0001157 284.9690 243.0511 15.54717415  4170"}}, "geometry": {"type": "Point", "coordinates": [-92.36904476926858, 24.463379100500543]}}, {"type": "Feature", "properties": {"norad_id": 66483, "name": "STARLINK-35654", "group": "last-30-days", "lat": 23.312869174044735, "lon": -90.69609862378158, "alt_km": 404.52720588925513, "timestamp": "2025-12-04T21:36:14.652091+00:00", "meta": {"OBJECT_NAME": "STARLINK-35654", "OBJECT_ID": "2025-262AD", "EPOCH": "2025-12-04T14:00:01.000224", "MEAN_MOTION": 15.54715317, "ECCENTRICITY": 0.00011882, "INCLINATION": 42.9993, "RA_OF_ASC_NODE": 118.7131, "ARG_OF_PERICENTER": 278.4957, "MEAN_ANOMALY": 251.4453, "EPHEMERIS_TYPE": 0, "CLASSIFICATION_TYPE": "U", "NORAD_CAT_ID": 66483, "ELEMENT_SET_NO": 999, "REV_AT_EPOCH": 432, "BSTAR": -0.036185551, "MEAN_MOTION_DOT": -0.02181683, "MEAN_MOTION_DDOT": 0}, "tle": {"line1": "1 66483U 25262AD  25338.58334491 -.02181683  00000+0 -36186-1 0  9997", "line2": "2 66483  42.9993 118.7131 0001188 278.4957 251.4453 15.54715317  4329"}}, "geometry": {"type": "Point", "coordinates": [-90.69609862378158, 23.312869174044735]}}, {"type": "Feature", "properties": {"norad_id": 66484, "name": "STARLINK-35371", "group": "last-30-days", "lat": 22.142506496206884, "lon": -89.04700125288848, "alt_km": 404.4467420227511, "timestamp": "2025-12-04T21:36:14.652101+00:00", "meta": {"OBJECT_NAME": "STARLINK-35371", "OBJECT_ID": "2025-262AE", "EPOCH": "2025-12-04T14:00:01.000224", "MEAN_MOTION": 15.54720191, "ECCENTRICITY": 9.386e-05, "INCLINATION": 42.9992, "RA_OF_ASC_NODE": 118.7093, "ARG_OF_PERICENTER": 274.2736, "MEAN_ANOMALY": 257.5837, "EPHEMERIS_TYPE": 0, "CLASSIFICATION_TYPE": "U", "NORAD_CAT_ID": 66484, "ELEMENT_SET_NO": 999, "REV_AT_EPOCH": 432, "BSTAR": -0.036250421, "MEAN_MOTION_DOT": -0.0218532, "MEAN_MOTION_DDOT": 0}, "tle": {"line1": "1 66484U 25262AE  25338.58334491 -.02185320  00000+0 -36250-1 0  9992", "line2": "2 66484  42.9992 118.7093 0000938 274.2736 257.5837 15.54720191  4326"}}, "geometry": {"type": "Point", "coordinates": [-89.04700125288848, 22.142506496206884]}}, {"type": "Feature", "properties": {"norad_id": 66485, "name": "STARLINK-34774", "group": "last-30-days", "lat": -36.593980629918306, "lon": 118.40746668522546, "alt_km": 374.3228938885195, "timestamp": "2025-12-04T21:36:14.652111+00:00", "meta": {"OBJECT_NAME": "STARLINK-34774", "OBJECT_ID": "2025-263A", "EPOCH": "2025-12-04T14:00:01.000224", "MEAN_MOTION": 15.66779713, "ECCENTRICITY": 0.00015639, "INCLINATION": 42.9989, "RA_OF_ASC_NODE": 173.1344, "ARG_OF_PERICENTER": 259.2952, "MEAN_ANOMALY": 51.3768, "EPHEMERIS_TYPE": 0, "CLASSIFICATION_TYPE": "U", "NORAD_CAT_ID": 66485, "ELEMENT_SET_NO": 999, "REV_AT_EPOCH": 432, "BSTAR": -0.021115604, "MEAN_MOTION_DOT": -0.02015184, "MEAN_MOTION_DDOT": 0}, "tle": {"line1": "1 66485U 25263A   25338.58334491 -.02015184  00000+0 -21116-1 0  9999", "line2": "2 66485  42.9989 173.1344 0001563 259.2952  51.3768 15.66779713  4325"}}, "geometry": {"type": "Point", "coordinates": [118.40746668522546, -36.593980629918306]}}, {"type": "Feature", "properties": {"norad_id": 66486, "name": "STARLINK-34844", "group": "last-30-days", "lat": -35.78565929895619, "lon": 120.55330435295971, "alt_km": 374.2862731207024, "timestamp": "2025-12-04T21:36:14.652121+00:00", "meta": {"OBJECT_NAME": "STARLINK-34844", "OBJECT_ID": "2025-263B", "EPOCH": "2025-12-04T14:00:01.000224", "MEAN_MOTION": 15.66776835, "ECCENTRICITY": 0.0001614, "INCLINATION": 42.9989, "RA_OF_ASC_NODE": 173.1286, "ARG_OF_PERICENTER": 259.0844, "MEAN_ANOMALY": 53.5065, "EPHEMERIS_TYPE": 0, "CLASSIFICATION_TYPE": "U", "NORAD_CAT_ID": 66486, "ELEMENT_SET_NO": 999, "REV_AT_EPOCH": 427, "BSTAR": -0.021082411, "MEAN_MOTION_DOT": -0.02012235, "MEAN_MOTION_DDOT": 0}, "tle": {"line1": "1 66486U 25263B   25338.58334491 -.02012235  00000+0 -21082-1 0  9996", "line2": "2 66486  42.9989 173.1286 0001614 259.0844  53.5065 15.66776835  4276"}}, "geometry": {"type": "Point", "coordinates": [120.55330435295971, -35.78565929895619]}}, {"type": "Feature", "properties": {"norad_id": 66487, "name": "STARLINK-34733", "group": "last-30-days", "lat": -34.93981835889281, "lon": 122.6564647988343, "alt_km": 374.26353669495165, "timestamp": "2025-12-04T21:36:14.652133+00:00", "meta": {"OBJECT_NAME": "STARLINK-34733", "OBJECT_ID": "2025-263C", "EPOCH": "2025-12-04T14:00:01.000224", "MEAN_MOTION": 15.667801, "ECCENTRICITY": 0.00016357, "INCLINATION": 42.9989, "RA_OF_ASC_NODE": 173.1245, "ARG_OF_PERICENTER": 258.8643, "MEAN_ANOMALY": 55.6419, "EPHEMERIS_TYPE": 0, "CLASSIFICATION_TYPE": "U", "NORAD_CAT_ID": 66487, "ELEMENT_SET_NO": 999, "REV_AT_EPOCH": 432, "BSTAR": -0.021131499, "MEAN_MOTION_DOT": -0.02016602, "MEAN_MOTION_DDOT": 0}, "tle": {"line1": "1 66487U 25263C   25338.58334491 -.02016602  00000+0 -21131-1 0  9994", "line2": "2 66487  42.9989 173.1245 0001635 258.8643  55.6419 15.66780100  4321"}}, "geometry": {"type": "Point", "coordinates": [122.6564647988343, -34.93981835889281]}}, {"type": "Feature", "properties": {"norad_id": 66488, "name": "STARLINK-35515", "group": "last-30-days", "lat": -34.05900361187038, "lon": 124.71331819378653, "alt_km": 374.2418493419027, "timestamp": "2025-12-04T21:36:14.652143+00:00", "meta": {"OBJECT_NAME": "STARLINK-35515", "OBJECT_ID": "2025-263D", "EPOCH": "2025-12-04T14:00:01.000224", "MEAN_MOTION": 15.6678127, "ECCENTRICITY": 0.00015169, "INCLINATION": 42.9989, "RA_OF_ASC_NODE": 173.1195, "ARG_OF_PERICENTER": 262.8017, "MEAN_ANOMALY": 53.6219, "EPHEMERIS_TYPE": 0, "CLASSIFICATION_TYPE": "U", "NORAD_CAT_ID": 66488, "ELEMENT_SET_NO": 999, "REV_AT_EPOCH": 432, "BSTAR": -0.02115016, "MEAN_MOTION_DOT": -0.02018152, "MEAN_MOTION_DDOT": 0}, "tle": {"line1": "1 66488U 25263D   25338.58334491 -.02018152  00000+0 -21150-1 0  9998", "line2": "2 66488  42.9989 173.1195 0001516 262.8017  53.6219 15.66781270  4329"}}, "geometry": {"type": "Point", "coordinates": [124.71331819378653, -34.05900361187038]}}]}